ONEWEB-0697             
1 61603U 24188K   24308.91667824 -.00964765  00000+0 -12524+0 0  9990
2 61603  86.5617 164.1981 0002118 144.2402 300.0473 14.83885203  3428
ONEWEB-0698             
1 61604U 24188L   24308.91667824 -.00991749  00000+0 -12189+0 0  9990
2 61604  86.5520 164.1823 0005621 152.7572 353.8651 14.86185689  3171
ONEWEB-0699             
1 61605U 24188M   24308.91667824 -.00859111  00000+0 -11252+0 0  9997
2 61605  86.5676 164.2086 0001428 148.5619 279.7618 14.83190849  3284
ONEWEB-0700             
1 61606U 24188N   24308.91667824 -.00971693  00000+0 -12463+0 0  9993
2 61606  86.5593 164.1956 0002604 136.3808 318.6226 14.84399303  3331
ONEWEB-0701             
1 61607U 24188P   24308.91667824 -.00982129  00000+0 -12391+0 0  9990
2 61607  86.5599 164.1952 0004658 143.4644 338.9138 14.85093884  3470
ONEWEB-0702             
1 61608U 24188Q   24308.91667824 -.00969252  00000+0 -11928+0 0  9998
2 61608  86.5526 164.1825 0005503 150.9527 352.5910 14.86064565  3221
ONEWEB-0704             
1 61609U 24188R   24308.91667824 -.00967224  00000+0 -12704+0 0  9999
2 61609  86.5683 164.2090 0001696 148.3933 284.4818 14.83411742  3299
ONEWEB-0705             
1 61610U 24188S   24308.91667824 -.00761589  00000+0 -95660-1 0  9991
2 61610  86.5602 164.1955 0004753 142.9710 341.8341 14.85008628  3411
