<?xml version="1.0" encoding="UTF-8"?>
<ndm xmlns:xsi="http://www.w3.org/2001/XMLSchema-instance" xsi:noNamespaceSchemaLocation="https://sanaregistry.org/r/ndmxml_unqualified/ndmxml-2.0.0-master-2.0.xsd">
<omm id="CCSDS_OMM_VERS" version="2.0">
<header><CREATION_DATE/><ORIGINATOR/></header><body><segment><metadata><OBJECT_NAME>ONEWEB-0697</OBJECT_NAME><OBJECT_ID>2024-188K</OBJECT_ID><CENTER_NAME>EARTH</CENTER_NAME><REF_FRAME>TEME</REF_FRAME><TIME_SYSTEM>UTC</TIME_SYSTEM><MEAN_ELEMENT_THEORY>SGP4</MEAN_ELEMENT_THEORY></metadata><data><meanElements><EPOCH>2024-11-03T22:00:00.999936</EPOCH><MEAN_MOTION>14.83885203</MEAN_MOTION><ECCENTRICITY>.0002118</ECCENTRICITY><INCLINATION>86.5617</INCLINATION><RA_OF_ASC_NODE>164.1981</RA_OF_ASC_NODE><ARG_OF_PERICENTER>144.2402</ARG_OF_PERICENTER><MEAN_ANOMALY>300.0473</MEAN_ANOMALY></meanElements><tleParameters><EPHEMERIS_TYPE>0</EPHEMERIS_TYPE><CLASSIFICATION_TYPE>U</CLASSIFICATION_TYPE><NORAD_CAT_ID>61603</NORAD_CAT_ID><ELEMENT_SET_NO>999</ELEMENT_SET_NO><REV_AT_EPOCH>342</REV_AT_EPOCH><BSTAR>-.12524E+0</BSTAR><MEAN_MOTION_DOT>-.964765E-2</MEAN_MOTION_DOT><MEAN_MOTION_DDOT>0</MEAN_MOTION_DDOT></tleParameters></data></segment></body></omm>
<omm id="CCSDS_OMM_VERS" version="2.0">
<header><CREATION_DATE/><ORIGINATOR/></header><body><segment><metadata><OBJECT_NAME>ONEWEB-0698</OBJECT_NAME><OBJECT_ID>2024-188L</OBJECT_ID><CENTER_NAME>EARTH</CENTER_NAME><REF_FRAME>TEME</REF_FRAME><TIME_SYSTEM>UTC</TIME_SYSTEM><MEAN_ELEMENT_THEORY>SGP4</MEAN_ELEMENT_THEORY></metadata><data><meanElements><EPOCH>2024-11-03T22:00:00.999936</EPOCH><MEAN_MOTION>14.86185689</MEAN_MOTION><ECCENTRICITY>.0005621</ECCENTRICITY><INCLINATION>86.5520</INCLINATION><RA_OF_ASC_NODE>164.1823</RA_OF_ASC_NODE><ARG_OF_PERICENTER>152.7572</ARG_OF_PERICENTER><MEAN_ANOMALY>353.8651</MEAN_ANOMALY></meanElements><tleParameters><EPHEMERIS_TYPE>0</EPHEMERIS_TYPE><CLASSIFICATION_TYPE>U</CLASSIFICATION_TYPE><NORAD_CAT_ID>61604</NORAD_CAT_ID><ELEMENT_SET_NO>999</ELEMENT_SET_NO><REV_AT_EPOCH>317</REV_AT_EPOCH><BSTAR>-.12189E+0</BSTAR><MEAN_MOTION_DOT>-.991749E-2</MEAN_MOTION_DOT><MEAN_MOTION_DDOT>0</MEAN_MOTION_DDOT></tleParameters></data></segment></body></omm>
<omm id="CCSDS_OMM_VERS" version="2.0">
<header><CREATION_DATE/><ORIGINATOR/></header><body><segment><metadata><OBJECT_NAME>ONEWEB-0699</OBJECT_NAME><OBJECT_ID>2024-188M</OBJECT_ID><CENTER_NAME>EARTH</CENTER_NAME><REF_FRAME>TEME</REF_FRAME><TIME_SYSTEM>UTC</TIME_SYSTEM><MEAN_ELEMENT_THEORY>SGP4</MEAN_ELEMENT_THEORY></metadata><data><meanElements><EPOCH>2024-11-03T22:00:00.999936</EPOCH><MEAN_MOTION>14.83190849</MEAN_MOTION><ECCENTRICITY>.0001428</ECCENTRICITY><INCLINATION>86.5676</INCLINATION><RA_OF_ASC_NODE>164.2086</RA_OF_ASC_NODE><ARG_OF_PERICENTER>148.5619</ARG_OF_PERICENTER><MEAN_ANOMALY>279.7618</MEAN_ANOMALY></meanElements><tleParameters><EPHEMERIS_TYPE>0</EPHEMERIS_TYPE><CLASSIFICATION_TYPE>U</CLASSIFICATION_TYPE><NORAD_CAT_ID>61605</NORAD_CAT_ID><ELEMENT_SET_NO>999</ELEMENT_SET_NO><REV_AT_EPOCH>328</REV_AT_EPOCH><BSTAR>-.11252E+0</BSTAR><MEAN_MOTION_DOT>-.859111E-2</MEAN_MOTION_DOT><MEAN_MOTION_DDOT>0</MEAN_MOTION_DDOT></tleParameters></data></segment></body></omm>
<omm id="CCSDS_OMM_VERS" version="2.0">
<header><CREATION_DATE/><ORIGINATOR/></header><body><segment><metadata><OBJECT_NAME>ONEWEB-0700</OBJECT_NAME><OBJECT_ID>2024-188N</OBJECT_ID><CENTER_NAME>EARTH</CENTER_NAME><REF_FRAME>TEME</REF_FRAME><TIME_SYSTEM>UTC</TIME_SYSTEM><MEAN_ELEMENT_THEORY>SGP4</MEAN_ELEMENT_THEORY></metadata><data><meanElements><EPOCH>2024-11-03T22:00:00.999936</EPOCH><MEAN_MOTION>14.84399303</MEAN_MOTION><ECCENTRICITY>.0002604</ECCENTRICITY><INCLINATION>86.5593</INCLINATION><RA_OF_ASC_NODE>164.1956</RA_OF_ASC_NODE><ARG_OF_PERICENTER>136.3808</ARG_OF_PERICENTER><MEAN_ANOMALY>318.6226</MEAN_ANOMALY></meanElements><tleParameters><EPHEMERIS_TYPE>0</EPHEMERIS_TYPE><CLASSIFICATION_TYPE>U</CLASSIFICATION_TYPE><NORAD_CAT_ID>61606</NORAD_CAT_ID><ELEMENT_SET_NO>999</ELEMENT_SET_NO><REV_AT_EPOCH>333</REV_AT_EPOCH><BSTAR>-.12463E+0</BSTAR><MEAN_MOTION_DOT>-.971693E-2</MEAN_MOTION_DOT><MEAN_MOTION_DDOT>0</MEAN_MOTION_DDOT></tleParameters></data></segment></body></omm>
<omm id="CCSDS_OMM_VERS" version="2.0">
<header><CREATION_DATE/><ORIGINATOR/></header><body><segment><metadata><OBJECT_NAME>ONEWEB-0701</OBJECT_NAME><OBJECT_ID>2024-188P</OBJECT_ID><CENTER_NAME>EARTH</CENTER_NAME><REF_FRAME>TEME</REF_FRAME><TIME_SYSTEM>UTC</TIME_SYSTEM><MEAN_ELEMENT_THEORY>SGP4</MEAN_ELEMENT_THEORY></metadata><data><meanElements><EPOCH>2024-11-03T22:00:00.999936</EPOCH><MEAN_MOTION>14.85093884</MEAN_MOTION><ECCENTRICITY>.0004658</ECCENTRICITY><INCLINATION>86.5599</INCLINATION><RA_OF_ASC_NODE>164.1952</RA_OF_ASC_NODE><ARG_OF_PERICENTER>143.4644</ARG_OF_PERICENTER><MEAN_ANOMALY>338.9138</MEAN_ANOMALY></meanElements><tleParameters><EPHEMERIS_TYPE>0</EPHEMERIS_TYPE><CLASSIFICATION_TYPE>U</CLASSIFICATION_TYPE><NORAD_CAT_ID>61607</NORAD_CAT_ID><ELEMENT_SET_NO>999</ELEMENT_SET_NO><REV_AT_EPOCH>347</REV_AT_EPOCH><BSTAR>-.12391E+0</BSTAR><MEAN_MOTION_DOT>-.982129E-2</MEAN_MOTION_DOT><MEAN_MOTION_DDOT>0</MEAN_MOTION_DDOT></tleParameters></data></segment></body></omm>
<omm id="CCSDS_OMM_VERS" version="2.0">
<header><CREATION_DATE/><ORIGINATOR/></header><body><segment><metadata><OBJECT_NAME>ONEWEB-0702</OBJECT_NAME><OBJECT_ID>2024-188Q</OBJECT_ID><CENTER_NAME>EARTH</CENTER_NAME><REF_FRAME>TEME</REF_FRAME><TIME_SYSTEM>UTC</TIME_SYSTEM><MEAN_ELEMENT_THEORY>SGP4</MEAN_ELEMENT_THEORY></metadata><data><meanElements><EPOCH>2024-11-03T22:00:00.999936</EPOCH><MEAN_MOTION>14.86064565</MEAN_MOTION><ECCENTRICITY>.0005503</ECCENTRICITY><INCLINATION>86.5526</INCLINATION><RA_OF_ASC_NODE>164.1825</RA_OF_ASC_NODE><ARG_OF_PERICENTER>150.9527</ARG_OF_PERICENTER><MEAN_ANOMALY>352.5910</MEAN_ANOMALY></meanElements><tleParameters><EPHEMERIS_TYPE>0</EPHEMERIS_TYPE><CLASSIFICATION_TYPE>U</CLASSIFICATION_TYPE><NORAD_CAT_ID>61608</NORAD_CAT_ID><ELEMENT_SET_NO>999</ELEMENT_SET_NO><REV_AT_EPOCH>322</REV_AT_EPOCH><BSTAR>-.11928E+0</BSTAR><MEAN_MOTION_DOT>-.969252E-2</MEAN_MOTION_DOT><MEAN_MOTION_DDOT>0</MEAN_MOTION_DDOT></tleParameters></data></segment></body></omm>
<omm id="CCSDS_OMM_VERS" version="2.0">
<header><CREATION_DATE/><ORIGINATOR/></header><body><segment><metadata><OBJECT_NAME>ONEWEB-0704</OBJECT_NAME><OBJECT_ID>2024-188R</OBJECT_ID><CENTER_NAME>EARTH</CENTER_NAME><REF_FRAME>TEME</REF_FRAME><TIME_SYSTEM>UTC</TIME_SYSTEM><MEAN_ELEMENT_THEORY>SGP4</MEAN_ELEMENT_THEORY></metadata><data><meanElements><EPOCH>2024-11-03T22:00:00.999936</EPOCH><MEAN_MOTION>14.83411742</MEAN_MOTION><ECCENTRICITY>.0001696</ECCENTRICITY><INCLINATION>86.5683</INCLINATION><RA_OF_ASC_NODE>164.2090</RA_OF_ASC_NODE><ARG_OF_PERICENTER>148.3933</ARG_OF_PERICENTER><MEAN_ANOMALY>284.4818</MEAN_ANOMALY></meanElements><tleParameters><EPHEMERIS_TYPE>0</EPHEMERIS_TYPE><CLASSIFICATION_TYPE>U</CLASSIFICATION_TYPE><NORAD_CAT_ID>61609</NORAD_CAT_ID><ELEMENT_SET_NO>999</ELEMENT_SET_NO><REV_AT_EPOCH>329</REV_AT_EPOCH><BSTAR>-.12704E+0</BSTAR><MEAN_MOTION_DOT>-.967224E-2</MEAN_MOTION_DOT><MEAN_MOTION_DDOT>0</MEAN_MOTION_DDOT></tleParameters></data></segment></body></omm>
<omm id="CCSDS_OMM_VERS" version="2.0">
<header><CREATION_DATE/><ORIGINATOR/></header><body><segment><metadata><OBJECT_NAME>ONEWEB-0705</OBJECT_NAME><OBJECT_ID>2024-188S</OBJECT_ID><CENTER_NAME>EARTH</CENTER_NAME><REF_FRAME>TEME</REF_FRAME><TIME_SYSTEM>UTC</TIME_SYSTEM><MEAN_ELEMENT_THEORY>SGP4</MEAN_ELEMENT_THEORY></metadata><data><meanElements><EPOCH>2024-11-03T22:00:00.999936</EPOCH><MEAN_MOTION>14.85008628</MEAN_MOTION><ECCENTRICITY>.0004753</ECCENTRICITY><INCLINATION>86.5602</INCLINATION><RA_OF_ASC_NODE>164.1955</RA_OF_ASC_NODE><ARG_OF_PERICENTER>142.9710</ARG_OF_PERICENTER><MEAN_ANOMALY>341.8341</MEAN_ANOMALY></meanElements><tleParameters><EPHEMERIS_TYPE>0</EPHEMERIS_TYPE><CLASSIFICATION_TYPE>U</CLASSIFICATION_TYPE><NORAD_CAT_ID>61610</NORAD_CAT_ID><ELEMENT_SET_NO>999</ELEMENT_SET_NO><REV_AT_EPOCH>341</REV_AT_EPOCH><BSTAR>-.9566E-1</BSTAR><MEAN_MOTION_DOT>-.761589E-2</MEAN_MOTION_DOT><MEAN_MOTION_DDOT>0</MEAN_MOTION_DDOT></tleParameters></data></segment></body></omm>

</ndm>
